OBJECT_NAME,OBJECT_ID,EPOCH,MEAN_MOTION,ECCENTRICITY,INCLINATION,RA_OF_ASC_NODE,ARG_OF_PERICENTER,MEAN_ANOMALY,EPHEMERIS_TYPE,CLASSIFICATION_TYPE,NORAD_CAT_ID,ELEMENT_SET_NO,REV_AT_EPOCH,BSTAR,MEAN_MOTION_DOT,MEAN_MOTION_DDOT
TIANMU-1 21,2023-208C,2026-06-26T18:20:31.178400,15.35238260,.0005662,97.4510,297.4811,281.5044,78.5563,0,U,58662,999,13903,.2764E-3,.938E-4,0
TIANMU-1 22,2023-208D,2026-06-26T14:44:45.689280,15.31181798,.0002412,97.4505,293.8910,322.2808,37.8264,0,U,58663,999,13877,.25783E-3,.7689E-4,0
TIANMU-1 15,2024-004A,2026-06-26T19:07:46.283808,15.26803621,.0005701,97.4665,3.9892,312.2214,47.8540,0,U,58700,999,13724,.22557E-3,.587E-4,0
TIANMU-1 16,2024-004B,2026-06-26T17:19:47.145216,15.26839569,.0004894,97.4613,3.1413,332.0268,28.0706,0,U,58701,999,13723,.21689E-3,.5646E-4,0
TIANMU-1 17,2024-004C,2026-06-26T18:33:13.294656,15.26839006,.0004573,97.4640,3.6806,339.3613,20.7440,0,U,58702,999,13723,.20881E-3,.5433E-4,0
TIANMU-1 18,2024-004D,2026-06-26T11:39:50.465664,15.26886664,.0003354,97.4659,3.6545,326.1029,33.9995,0,U,58703,999,13719,.21648E-3,.5643E-4,0
INSAT-3DS,2024-033A,2026-06-26T16:21:54.452736,1.00270688,.0001468,0.0608,100.8725,344.9588,156.5219,0,U,58990,999,4716,0,-.144E-5,0
METEOR-M2 4,2024-039A,2026-06-26T17:59:55.472640,14.22430436,.000779,98.7014,136.9279,135.2995,224.8812,0,U,59051,999,12062,.20744E-4,.2E-7,0
GOES 19,2024-119A,2026-06-26T13:54:26.044704,1.00272215,.0000612,0.0028,105.6097,37.8145,264.6931,0,U,60133,999,705,0,-.237E-5,0
MTG-S1,2025-143A,2026-06-24T17:46:37.650720,1.00400949,.00005853,0.5970,340.6178,288.6722,269.7793,0,U,64723,999,349,0,.23E-6,0
METOP-SGA1,2025-172A,2026-06-26T17:22:15.120768,14.19816506,.0008117,98.6642,237.2491,26.0511,334.1072,0,U,65159,999,4514,.37947E-4,.37E-6,0
FENGYUN 3H,2025-219A,2026-06-26T18:22:09.696000,14.19921963,.0001512,98.6769,118.3483,70.5569,289.5771,0,U,65815,999,3874,.34793E-4,.31E-6,0
